STARLETTE               
1 07646U 75010A   22314.14457850 -.00000125  00000+0  15703-4 0  9990
2 07646  49.8233 255.1724 0205743  38.8355 322.7122 13.82314477412627
LAGEOS 1                
1 08820U 76039A   22313.70842042  .00000000  00000+0  00000+0 0  9999
2 08820 109.8518  88.7519 0045146 223.9749 135.1417  6.38664958829125
AJISAI (EGS)            
1 16908U 86061A   22313.86868590 -.00000079  00000+0  13043-3 0  9996
2 16908  50.0086 231.9057 0011479  72.1135  37.4763 12.44497880316954
COSMOS 1989 (ETALON 1)  
1 19751U 89001C   22313.77828623  .00000034  00000+0  00000+0 0  9990
2 19751  64.3422 117.3859 0023875 213.5438 158.5012  2.13156299263338
COSMOS 2024 (ETALON 2)  
1 20026U 89039C   22313.39689277 -.00000070  00000+0  00000+0 0  9997
2 20026  65.5191 355.4725 0018663 218.7281 154.6547  2.13204374260458
LAGEOS 2                
1 22195U 92070B   22313.44803031 -.00000009  00000+0  00000+0 0  9999
2 22195  52.6813  18.1689 0138264 332.2058  11.1050  6.47293393710233
STELLA                  
1 22824U 93061B   22313.92443111 -.00000024  00000+0  90752-5 0  9997
2 22824  98.9547 338.4601 0007457  94.1106 338.4042 14.27394858517133
LARES                   
1 38077U 12006A   22313.88521357 -.00000052  00000+0 -82421-4 0  9993
2 38077  69.4973  18.8958 0010560 214.7526 145.2809 12.54930909492155
